[{"OBJECT_NAME":"ONEWEB-0331","OBJECT_ID":"2021-083N","EPOCH":"2026-03-09T19:48:00.535680","MEAN_MOTION":13.18686875,"ECCENTRICITY":0.00017559,"INCLINATION":87.9252,"RA_OF_ASC_NODE":355.1815,"ARG_OF_PERICENTER":66.222,"MEAN_ANOMALY":293.9096,"EPHEMERIS_TYPE":0,"CLASSIFICATION_TYPE":"U","NORAD_CAT_ID":49198,"ELEMENT_SET_NO":999,"REV_AT_EPOCH":21691,"BSTAR":0.0001906797,"MEAN_MOTION_DOT":8.8e-7,"MEAN_MOTION_DDOT":0},{"OBJECT_NAME":"SL-14 DEB","OBJECT_ID":"1991-056CW","EPOCH":"2026-03-09T06:57:53.934048","MEAN_MOTION":13.24406991,"ECCENTRICITY":0.00298115,"INCLINATION":82.555,"RA_OF_ASC_NODE":191.8795,"ARG_OF_PERICENTER":269.3545,"MEAN_ANOMALY":90.4166,"EPHEMERIS_TYPE":0,"CLASSIFICATION_TYPE":"U","NORAD_CAT_ID":45652,"ELEMENT_SET_NO":999,"REV_AT_EPOCH":28562,"BSTAR":0.0022379031,"MEAN_MOTION_DOT":9.75e-6,"MEAN_MOTION_DDOT":0}]
